{
    "CCSDS_OMM_VERS": "3.0",
    "COMMENT": "GENERATED VIA SPACE-TRACK.ORG API",
    "CREATION_DATE": "2025-05-20T18:25:46",
    "ORIGINATOR": "18 SPCS",
    "OBJECT_NAME": "GALILEO 28 (224)",
    "OBJECT_ID": "2021-116B",
    "CENTER_NAME": "EARTH",
    "REF_FRAME": "TEME",
    "TIME_SYSTEM": "UTC",
    "MEAN_ELEMENT_THEORY": "SGP4",
    "EPOCH": "2025-05-19T12:13:48.194976",
    "MEAN_MOTION": "1.70475743",
    "ECCENTRICITY": "0.00006710",
    "INCLINATION": "57.2666",
    "RA_OF_ASC_NODE": "352.3015",
    "ARG_OF_PERICENTER": "105.2360",
    "MEAN_ANOMALY": "78.5027",
    "EPHEMERIS_TYPE": "0",
    "CLASSIFICATION_TYPE": "U",
    "NORAD_CAT_ID": "49810",
    "ELEMENT_SET_NO": "999",
    "REV_AT_EPOCH": "2149",
    "BSTAR": "0.00000000000000",
    "MEAN_MOTION_DOT": "-0.00000065",
    "MEAN_MOTION_DDOT": "0.0000000000000",
    "SEMIMAJOR_AXIS": "29600.118",
    "PERIOD": "844.695",
    "APOAPSIS": "23223.969",
    "PERIAPSIS": "23219.997",
    "OBJECT_TYPE": "PAYLOAD",
    "RCS_SIZE": "LARGE",
    "COUNTRY_CODE": "ESA",
    "LAUNCH_DATE": "2021-12-05",
    "SITE": "FRGUI",
    "DECAY_DATE": null,
    "FILE": "4734167",
    "GP_ID": "288010360",
    "TLE_LINE0": "0 GALILEO 28 (224)",
    "TLE_LINE1": "1 49810U 21116B   25139.50958559 -.00000065  00000-0  00000-0 0  9991",
    "TLE_LINE2": "2 49810  57.2666 352.3015 0000671 105.2360  78.5027  1.70475743 21499"
}